MOLNIYA 2-9             
1 07276U 74026A   19301.50984303 -.00000008  00000-0  28936-2 0  9996
2 07276  63.7850  19.8469 6843027 289.0442  12.3082  2.45095604225751
MOLNIYA 2-10            
1 07376U 74056A   19301.86740873  .00001321  00000-0  00000+0 0  9998
2 07376  63.4954 192.6469 6825363 293.7637  11.2369  2.01143902331048
MOLNIYA 1-S             
1 07392U 74060A   19301.99468847 -.00000361  00000-0  00000+0 0  9997
2 07392   7.4171 296.6345 0007586 187.6989  18.2123  1.00259781109866
MOLNIYA 1-29            
1 07780U 75036A   19301.19273500  .00000112  00000-0 -13348-3 0  9991
2 07780  62.7031 348.4856 7454820 286.3810   9.3246  2.00639985326297
MOLNIYA 2-14            
1 08195U 75081A   19301.19249624  .00001327  00000-0  76237-3 0  9996
2 08195  62.8800 314.0169 7397530 291.3106   8.5390  2.02085942323442
MOLNIYA 1-32            
1 08601U 76006A   19301.63858311  .00000834  00000-0 -30552-2 0  9996
2 08601  62.4203  86.5747 7349460 276.3972  12.3811  2.00068803319747
MOLNIYA 1-36            
1 09880U 77021A   19301.44818595  .00001541  00000-0  27448-3 0  9999
2 09880  62.1914  60.7608 7469333 281.3042  10.4363  2.00817855210132
MOLNIYA 3-8             
1 10455U 77105A   19299.69506276  .00001560  00000-0  14023-1 0  9999
2 10455  62.1993 143.9501 7189936 274.7121  13.9548  2.00615893307786
MOLNIYA 1-40            
1 10925U 78055A   19299.73600997  .00000773  00000-0  98662-3 0  9994
2 10925  62.4237 176.1215 7042274 277.6590  14.1621  2.00527119303365
MOLNIYA 3-10            
1 11057U 78095A   19301.72123329  .00002261  00000-0  30239-3 0  9997
2 11057  62.6604  48.9462 5979925 293.5577  16.1298  4.09003636344297
MOLNIYA 3-13            
1 11896U 80063A   19301.94848712  .00000323  00000-0 -49347-3 0  9998
2 11896  62.5612 261.1710 7270317 274.5201  13.3430  2.00590147287835
MOLNIYA 1-49            
1 12156U 81009A   19301.18271457  .00000357  00000-0  20343-2 0  9991
2 12156  62.5503 309.4858 7253336 249.8148  23.6703  2.05703268201670
MOLNIYA 1-52            
1 13012U 81123A   19302.28314685 -.00001361  00000-0  00000+0 0  9995
2 13012  63.7846  59.1043 7173633 248.5644  25.4518  2.00574888277348
MOLNIYA 1-53            
1 13070U 82015A   19302.12592538 -.00000313  00000-0  32833-3 0  9997
2 13070  62.4534   0.1302 7512446 272.6145  12.1409  2.00683286275948
MOLNIYA 3-20            
1 13875U 83015A   19300.52729069 -.00000560  00000-0 -35811-1 0  9996
2 13875  63.5378 129.5869 7011669 256.0314  19.7780  2.00425790204411
MOLNIYA 1-56            
1 13890U 83019A   19301.16145741  .00001389  00000-0  00000+0 0  9995
2 13890  63.2388 154.0910 7004935 260.6702 341.4802  1.99859460267350
MOLNIYA 1-62            
1 15214U 84089A   19301.91754900 -.00000540  00000-0 -28290-2 0  9995
2 15214  62.7366 164.1654 7182612 264.0910  17.6665  1.97960093225207
MOLNIYA 1-63            
1 15429U 84124A   19300.26970993 -.00001100  00000-0  00000+0 0  9990
2 15429  63.8303 258.5153 6679639 268.0421 342.6831  2.00660973255466
MOLNIYA 3-24            
1 15738U 85040A   19301.37090819  .00000112  00000-0  23880-2 0  9999
2 15738  63.9154 241.8598 6459008 254.3798 324.0438  2.55630071279282
MOLNIYA 3-27            
1 16393U 85117A   19302.25753323  .00000245  00000-0  28961+0 0  9995
2 16393  64.6658 188.4441 6470415 260.4275 305.5787  2.12399075253768
MOLNIYA 1-69            
1 17078U 86089A   19301.56604187  .00000034  00000-0  51711-1 0  9998
2 17078  64.1986 280.5237 6807175 267.8400 251.7936  2.00639069241518
MOLNIYA 3-31            
1 17328U 87008A   19300.86771962  .00000398  00000-0  00000+0 0  9992
2 17328  63.8366 228.7421 6712195 262.9132  22.5334  2.00549391236561
MOLNIYA 1-71            
1 18946U 88017A   19300.31995946  .00000270  00000-0 -39689-1 0  9997
2 18946  63.5700 231.1562 6843380 263.0801 346.2178  2.00646922231753
MOLNIYA 1-75            
1 19807U 89014A   19302.15684622 -.00001201  00000-0  14901-1 0  9997
2 19807  64.2468  39.9536 7032804 272.7801  15.7816  2.00408658224787
MOLNIYA 1-80            
1 21118U 91012A   19301.37229948 -.00000806  00000-0  00000+0 0  9998
2 21118  63.9709  83.4904 6834511 287.7772  12.6377  2.05245778211230
MOLNIYA 3-40            
1 21196U 91022A   19301.32083664 -.00001045  00000-0  00000-0 0  9990
2 21196  64.1787  76.2413 6867673 284.9371  13.2248  2.03011381210141
MOLNIYA 1-81            
1 21426U 91043A   19301.50769113  .00000237  00000-0  00000+0 0  9999
2 21426  63.8843 103.0619 6907547 273.5000  16.4790  2.00600101207831
MOLNIYA 3-41            
1 21706U 91065A   19301.05152612 -.00000972  00000-0  23408-1 0  9990
2 21706  64.2633 267.4999 6845272 266.9656 144.4609  2.04358210207228
MOLNIYA 3-42            
1 22178U 92067A   19301.24109523 -.00000111  00000-0  00000-0 0  9998
2 22178  64.6866 329.4643 6828527 280.2751  14.7265  2.20433311 58942
MOLNIYA 1-86            
1 22671U 93035A   19302.41803330 -.00000056  00000-0 -13726-4 0  9991
2 22671  63.1372  72.5958 4830845 353.7260   1.8903  5.62588155298124
MOLNIYA 1-87            
1 22949U 93079A   19300.87669135  .00001086  00000-0  12399-2 0  9993
2 22949  63.3522 198.5960 6919264 290.0982  11.5921  2.02868491189731
MOLNIYA 1-88            
1 23420U 94081A   19301.54872805  .00000022  00000-0  18741-2 0  9993
2 23420  63.8862  61.8988 6038232 296.5461  14.7942  3.34491502214738
MOLNIYA 3-47            
1 23642U 95042A   19301.68537322 -.00000713  00000-0  85760-2 0  9997
2 23642  63.1894 181.6866 6880485 289.2102  12.0454  2.01978997177596
MOLNIYA 1-90            
1 24960U 97054A   19301.39278133  .00000024  00000-0  43399-3 0  9993
2 24960  63.2038  38.3469 6407774 300.0183  11.8431  3.18685649177315
MOLNIYA 1-91            
1 25485U 98054A   19301.44758097  .00000444  00000-0  32770-3 0  9992
2 25485  62.6903 317.7854 7204984 286.4178  63.5974  2.36379477155606
MOLNIYA 3-50            
1 25847U 99036A   19298.56617435  .00000033  00000-0 -32912-2 0  9995
2 25847  62.1414 127.2553 7265587 273.2030  13.8516  2.00583521148731
